NORAD_CAT_ID,OBJECT_NAME,OBJECT_TYPE,EPOCH,MEAN_MOTION,ECCENTRICITY,INCLINATION,RA_OF_ASC_NODE,ARG_OF_PERICENTER,MEAN_ANOMALY,BSTAR,MEAN_MOTION_DOT,MEAN_MOTION_DDOT,TLE_LINE0,TLE_LINE1,TLE_LINE2,SEMIMAJOR_AXIS,PERIOD,APOGEE,PERIGEE,DECAYED
53916.0,STARLINK-5051,PAYLOAD,2024-04-19 11:30:55,15.08848228,0.0001458,53.2159,147.7539,105.4782,254.6371,0.00043299,6.611e-05,0.0,0 STARLINK-5051,1 53916U 22119AG  24110.47980627  .00006611  00000-0  43299-3 0  9994,2 53916  53.2159 147.7539 0001458 105.4782 254.6371 15.08848228 87641,6917.855,95.437,540.729,538.712,0.0
53916.0,STARLINK-5051,PAYLOAD,2024-04-20 01:49:22,15.0886578,0.0001392,53.2157,145.0789,103.0494,257.0654,0.00053859,8.3e-05,0.0,0 STARLINK-5051,1 53916U 22119AG  24111.07595583  .00008300  00000-0  53859-3 0  9994,2 53916  53.2157 145.0789 0001392 103.0494 257.0654 15.08865780 87731,6917.802,95.436,540.63,538.704,0.0
53916.0,STARLINK-5051,PAYLOAD,2024-04-20 09:46:17,15.08874721,0.0001409,53.2155,143.593,100.1665,259.9486,0.0006517,0.00010109,0.0,0 STARLINK-5051,1 53916U 22119AG  24111.40714915  .00010109  00000-0  65170-3 0  9992,2 53916  53.2155 143.5930 0001409 100.1665 259.9486 15.08874721 88210,6917.774,95.435,540.614,538.665,0.0
53916.0,STARLINK-5051,PAYLOAD,2024-04-21 01:40:09,15.08843926,0.0001564,53.2156,140.6205,96.5484,263.5686,-0.00015266,-2.717e-05,0.0,0 STARLINK-5051,1 53916U 22119AG  24112.06955248 -.00002717  00000-0 -15266-3 0  9990,2 53916  53.2156 140.6205 0001564  96.5484 263.5686 15.08843926 87881,6917.868,95.437,540.815,538.651,0.0
53916.0,STARLINK-5051,PAYLOAD,2024-04-21 11:12:29,15.08807104,0.0001331,53.2154,138.8356,96.2471,263.8673,-0.00047042,-7.76e-05,0.0,0 STARLINK-5051,1 53916U 22119AG  24112.46700375 -.00007760  00000-0 -47042-3 0  9993,2 53916  53.2154 138.8356 0001331  96.2471 263.8673 15.08807104 88372,6917.981,95.44,540.767,538.925,0.0
53916.0,STARLINK-5051,PAYLOAD,2024-04-22 07:52:31,15.08836391,0.0001394,53.2152,134.9709,85.3452,274.7699,0.0014208,0.00022394,0.0,0 STARLINK-5051,1 53916U 22119AG  24113.32813941  .00022394  00000-0  14208-2 0  9998,2 53916  53.2152 134.9709 0001394  85.3452 274.7699 15.08836391 88072,6917.891,95.438,540.721,538.792,0.0
53916.0,STARLINK-5051,PAYLOAD,2024-04-22 11:03:17,15.08844567,0.0001484,53.2151,134.3756,71.8671,288.2483,0.0014332,0.00022598,0.0,0 STARLINK-5051,1 53916U 22119AG  24113.46061944  .00022598  00000-0  14332-2 0  9995,2 53916  53.2151 134.3756 0001484  71.8671 288.2483 15.08844567 88525,6917.866,95.437,540.758,538.705,0.0
53916.0,STARLINK-5051,PAYLOAD,2024-04-23 04:32:31,15.08859914,0.0001438,53.2151,131.1039,102.8079,257.3074,0.0010122,0.00015867,0.0,0 STARLINK-5051,1 53916U 22119AG  24114.18925363  .00015867  00000-0  10122-2 0  9993,2 53916  53.2151 131.1039 0001438 102.8079 257.3074 15.08859914 88200,6917.82,95.436,540.679,538.69,0.0
53916.0,STARLINK-5051,PAYLOAD,2024-04-23 10:54:03,15.08864078,0.0001462,53.2153,129.9148,112.8039,247.3108,0.00084858,0.00013252,0.0,0 STARLINK-5051,1 53916U 22119AG  24114.45420973  .00013252  00000-0  84858-3 0  9994,2 53916  53.2153 129.9148 0001462 112.8039 247.3108 15.08864078 88677,6917.807,95.436,540.683,538.66,0.0
53916.0,STARLINK-5051,PAYLOAD,2024-04-24 10:44:50,15.08846697,0.0001419,53.2164,125.455,103.1486,256.9665,7.9216e-05,9.73e-06,0.0,0 STARLINK-5051,1 53916U 22119AG  24115.44780936  .00000973  00000-0  79216-4 0  9991,2 53916  53.2164 125.4550 0001419 103.1486 256.9665 15.08846697 88398,6917.86,95.437,540.707,538.743,0.0
53916.0,STARLINK-5051,PAYLOAD,2024-04-25 07:24:51,15.08843349,0.0001328,53.2171,121.5885,102.6708,257.4432,5.5276e-05,5.92e-06,0.0,0 STARLINK-5051,1 53916U 22119AG  24116.30893055  .00000592  00000-0  55276-4 0  9991,2 53916  53.2171 121.5885 0001328 102.6708 257.4432 15.08843349 88528,6917.87,95.437,540.654,538.816,0.0
53916.0,STARLINK-5051,PAYLOAD,2024-04-26 07:15:38,15.08839224,0.0001279,53.2167,117.1283,99.6438,260.4698,9.508e-05,1.226e-05,0.0,0 STARLINK-5051,1 53916U 22119AG  24117.30253133  .00001226  00000-0  95080-4 0  9991,2 53916  53.2167 117.1283 0001279  99.6438 260.4698 15.08839224 89106,6917.883,95.438,540.633,538.863,0.0
53916.0,STARLINK-5051,PAYLOAD,2024-04-26 23:09:29,15.08842514,0.0001309,53.2171,114.1552,98.9828,261.1312,0.00010634,1.405e-05,0.0,0 STARLINK-5051,1 53916U 22119AG  24117.96492924  .00001405  00000-0  10634-3 0  9996,2 53916  53.2171 114.1552 0001309  98.9828 261.1312 15.08842514 89204,6917.873,95.437,540.643,538.832,0.0
53916.0,STARLINK-5051,PAYLOAD,2024-04-27 08:41:48,15.08848341,0.0001343,53.217,112.3709,101.6032,258.5111,0.00013867,1.92e-05,0.0,0 STARLINK-5051,1 53916U 22119AG  24118.36236458  .00001920  00000-0  13867-3 0  9992,2 53916  53.2170 112.3709 0001343 101.6032 258.5111 15.08848341 88833,6917.855,95.437,540.649,538.791,0.0
53916.0,STARLINK-5051,PAYLOAD,2024-04-27 16:38:43,15.0885286,0.0001288,53.2166,110.8832,78.4429,281.6708,0.00016507,2.341e-05,0.0,0 STARLINK-5051,1 53916U 22119AG  24118.69355916  .00002341  00000-0  16507-3 0  9991,2 53916  53.2166 110.8832 0001288  78.4429 281.6708 15.08852860 89311,6917.841,95.437,540.597,538.815,0.0
53916.0,STARLINK-5051,PAYLOAD,2024-04-28 05:21:50,15.08828094,0.0001197,53.2167,108.505,95.3708,264.742,-2.1898e-05,-6.36e-06,0.0,0 STARLINK-5051,1 53916U 22119AG  24119.22350073 -.00000636  00000-0 -21898-4 0  9997,2 53916  53.2167 108.5050 0001197  95.3708 264.7420 15.08828094 88960,6917.917,95.438,540.61,538.954,0.0
53916.0,STARLINK-5051,PAYLOAD,2024-04-28 08:32:36,15.08832451,0.0001348,53.216,107.9103,91.4727,268.642,-4.4842e-05,-1.001e-05,0.0,0 STARLINK-5051,1 53916U 22119AG  24119.35597315 -.00001001  00000-0 -44842-4 0  9994,2 53916  53.2160 107.9103 0001348  91.4727 268.6420 15.08832451 88988,6917.903,95.438,540.701,538.836,0.0
53916.0,STARLINK-5051,PAYLOAD,2024-04-28 16:29:31,15.08836922,0.000138,53.2166,106.4243,90.1591,269.9559,2.1936e-05,6.1e-07,0.0,0 STARLINK-5051,1 53916U 22119AG  24119.68717204  .00000061  00000-0  21936-4 0  9993,2 53916  53.2166 106.4243 0001380  90.1591 269.9559 15.08836922 89462,6917.89,95.438,540.709,538.8,0.0
53916.0,STARLINK-5051,PAYLOAD,2024-04-29 08:23:22,15.08842601,0.0001381,53.2166,103.4503,90.2233,269.8917,0.00012453,1.695e-05,0.0,0 STARLINK-5051,1 53916U 22119AG  24120.34957130  .00001695  00000-0  12453-3 0  9999,2 53916  53.2166 103.4503 0001381  90.2233 269.8917 15.08842601 89135,6917.872,95.437,540.693,538.782,0.0
53916.0,STARLINK-5051,PAYLOAD,2024-04-29 16:20:18,15.08847517,0.0001361,53.2166,101.964,90.3282,269.7866,0.00018974,2.734e-05,0.0,0 STARLINK-5051,1 53916U 22119AG  24120.68076912  .00002734  00000-0  18974-3 0  9995,2 53916  53.2166 101.9640 0001361  90.3282 269.7866 15.08847517 89619,6917.857,95.437,540.664,538.781,0.0
53916.0,STARLINK-5051,PAYLOAD,2024-04-30 05:03:23,15.08842858,0.0001435,53.217,99.5849,89.1456,270.9701,0.00024454,3.606e-05,0.0,0 STARLINK-5051,1 53916U 22119AG  24121.21069340  .00003606  00000-0  24454-3 0  9991,2 53916  53.2170  99.5849 0001435  89.1456 270.9701 15.08842858 89691,6917.872,95.437,540.729,538.744,0.0
53916.0,STARLINK-5051,PAYLOAD,2024-04-30 22:32:38,15.0884614,0.0001462,53.2172,96.3134,90.9676,269.1483,0.00018198,2.61e-05,0.0,0 STARLINK-5051,1 53916U 22119AG  24121.93933134  .00002610  00000-0  18198-3 0  9993,2 53916  53.2172  96.3134 0001462  90.9676 269.1483 15.08846140 89807,6917.862,95.437,540.738,538.715,0.0
53916.0,STARLINK-5051,PAYLOAD,2024-05-01 04:54:10,15.08844619,0.0001439,53.2175,95.1234,93.8872,266.2285,9.2708e-05,1.188e-05,0.0,0 STARLINK-5051,1 53916U 22119AG  24122.20429151  .00001188  00000-0  92708-4 0  9992,2 53916  53.2175  95.1234 0001439  93.8872 266.2285 15.08844619 89416,6917.866,95.437,540.727,538.736,0.0
53916.0,STARLINK-5051,PAYLOAD,2024-05-01 22:23:25,15.08839395,0.0001404,53.2169,91.8512,93.4661,266.6491,5.8997e-05,6.51e-06,0.0,0 STARLINK-5051,1 53916U 22119AG  24122.93293321  .00000651  00000-0  58997-4 0  9996,2 53916  53.2169  91.8512 0001404  93.4661 266.6491 15.08839395 89952,6917.882,95.438,540.719,538.776,0.0
53916.0,STARLINK-5051,PAYLOAD,2024-05-02 04:44:58,15.0883583,0.0001292,53.2174,90.6646,89.9618,270.1522,4.031e-05,3.54e-06,0.0,0 STARLINK-5051,1 53916U 22119AG  24123.19789755  .00000354  00000-0  40310-4 0  9996,2 53916  53.2174  90.6646 0001292  89.9618 270.1522 15.08835830 89562,6917.893,95.438,540.652,538.864,0.0
53916.0,STARLINK-5051,PAYLOAD,2024-05-02 14:17:16,15.08843287,0.0001285,53.218,88.8807,87.983,272.131,2.9741e-05,1.86e-06,0.0,0 STARLINK-5051,1 53916U 22119AG  24123.59533234  .00000186  00000-0  29741-4 0  9997,2 53916  53.2180  88.8807 0001285  87.9830 272.1310 15.08843287 90051,6917.87,95.437,540.624,538.846,0.0
53916.0,STARLINK-5051,PAYLOAD,2024-05-03 14:08:02,15.08855549,0.0001195,53.2177,84.4164,77.8039,282.3087,0.00020619,2.997e-05,0.0,0 STARLINK-5051,1 53916U 22119AG  24124.58891821  .00002997  00000-0  20619-3 0  9992,2 53916  53.2177  84.4164 0001195  77.8039 282.3087 15.08855549 90209,6917.833,95.437,540.525,538.871,0.0
53916.0,STARLINK-5051,PAYLOAD,2024-05-03 20:29:37,15.08826313,0.0001867,53.2188,83.2309,82.6587,277.4618,3.0666e-05,2e-06,0.0,0 STARLINK-5051,1 53916U 22119AG  24124.85390390  .00000200  00000-0  30666-4 0  9996,2 53916  53.2188  83.2309 0001867  82.6587 277.4618 15.08826313 89814,6917.922,95.438,541.079,538.496,0.0
53916.0,STARLINK-5051,PAYLOAD,2024-05-04 04:26:33,15.08819108,0.0001343,53.2183,81.7442,86.1609,273.9537,-2.3489e-05,-6.61e-06,0.0,0 STARLINK-5051,1 53916U 22119AG  24125.18511331 -.00000661  00000-0 -23489-4 0  9991,2 53916  53.2183  81.7442 0001343  86.1609 273.9537 15.08819108 89863,6917.944,95.439,540.738,538.88,0.0
53916.0,STARLINK-5051,PAYLOAD,2024-05-04 06:01:56,15.08820079,0.0001414,53.2176,81.4467,85.4045,274.7109,-0.000165,-2.911e-05,0.0,0 STARLINK-5051,1 53916U 22119AG  24125.25134553 -.00002911  00000-0 -16500-3 0  9991,2 53916  53.2176  81.4467 0001414  85.4045 274.7109 15.08820079 89878,6917.941,95.439,540.784,538.828,0.0
